ARIANE 40 R/B           
1 20443U 90005H   25326.09917622  .00000352  00000+0  12580-3 0  9999
2 20443  98.3272  24.8579 0010552 162.7464 197.4085 14.39775879877325
DELTA 2 R/B(1)          
1 20453U 90008B   25325.86744508  .00036592  00000+0  61962-3 0  9991
2 20453  35.6045 155.1047 0115572 347.6144  12.1757 15.43272498909402
COSMOS 2058             
1 20465U 90010A   25326.02090953  .00003715  00000+0  22539-3 0  9992
2 20465  82.4628 153.4141 0009977 354.9719   5.1409 15.10218501925984
SL-14 R/B               
1 20466U 90010B   25325.56558750  .00000478  00000+0  55163-4 0  9998
2 20466  82.5037   8.9331 0018433 298.3182  61.6173 14.83443564912458
SL-14 R/B               
1 20511U 90018B   25326.08713001  .00000475  00000+0  56695-4 0  9995
2 20511  82.5198 323.6705 0017986  86.6624 273.6647 14.82016447906640
HST                     
1 20580U 90037B   25325.36689219  .00008339  00000+0  29185-3 0  9995
2 20580  28.4694  57.9121 0001715  15.6328 344.4320 15.27634302756724
SL-16 R/B               
1 20625U 90046B   25325.96227834  .00000088  00000+0  69858-4 0  9997
2 20625  70.9959 164.1560 0012263 111.8473 248.3955 14.14990297833150
COSMOS 2084             
1 20663U 90055A   25326.10244612  .00002558  00000+0  19216-3 0  9995
2 20663  62.7909 342.3024 0034961 172.2160 187.9490 15.04837572920126
SL-6 R/B(2)             
1 20666U 90055D   25326.07607404  .00002646  00000+0  21035-3 0  9996
2 20666  62.7835 259.6181 0011130 291.8468  68.1447 15.02936419922013
SL-8 R/B                
1 20775U 90078B   25326.11713998  .00021413  00000+0  66219-3 0  9999
2 20775  82.9048 347.7513 0378509  15.0623 346.1497 14.84713579793319
SL-8 R/B                
1 21088U 91006B   25325.90545288  .00000102  00000+0  87512-4 0  9992
2 21088  82.9424 250.2088 0022149 340.8102  87.4637 13.77486301749231
OKEAN-3                 
1 21397U 91039A   25325.79157500  .00004090  00000+0  29424-3 0  9991
2 21397  82.5167  81.3177 0014127 343.6007  16.4760 15.03913198848811
