CCSDS_OMM_VERS = 2.0
CREATION_DATE  = 
ORIGINATOR     = 

OBJECT_NAME    = ARIANE 40 R/B
OBJECT_ID      = 1990-005H
CENTER_NAME    = EARTH
REF_FRAME      = TEME
TIME_SYSTEM    = UTC
MEAN_ELEMENT_THEORY = SGP/SGP4

EPOCH          = 2025-11-22T02:22:48.825408
MEAN_MOTION    = 14.39775879
ECCENTRICITY   = .0010552
INCLINATION    = 98.3272
RA_OF_ASC_NODE = 24.8579
ARG_OF_PERICENTER = 162.7464
MEAN_ANOMALY   = 197.4085

EPHEMERIS_TYPE = 0
CLASSIFICATION_TYPE = U
NORAD_CAT_ID   = 20443
ELEMENT_SET_NO = 999
REV_AT_EPOCH   = 87732
BSTAR          = .1258E-3
MEAN_MOTION_DOT = .352E-5
MEAN_MOTION_DDOT = 0

CCSDS_OMM_VERS = 2.0
CREATION_DATE  = 
ORIGINATOR     = 

OBJECT_NAME    = DELTA 2 R/B(1)
OBJECT_ID      = 1990-008B
CENTER_NAME    = EARTH
REF_FRAME      = TEME
TIME_SYSTEM    = UTC
MEAN_ELEMENT_THEORY = SGP/SGP4

EPOCH          = 2025-11-21T20:49:07.254912
MEAN_MOTION    = 15.43272498
ECCENTRICITY   = .0115572
INCLINATION    = 35.6045
RA_OF_ASC_NODE = 155.1047
ARG_OF_PERICENTER = 347.6144
MEAN_ANOMALY   = 12.1757

EPHEMERIS_TYPE = 0
CLASSIFICATION_TYPE = U
NORAD_CAT_ID   = 20453
ELEMENT_SET_NO = 999
REV_AT_EPOCH   = 90940
BSTAR          = .61962E-3
MEAN_MOTION_DOT = .36592E-3
MEAN_MOTION_DDOT = 0

CCSDS_OMM_VERS = 2.0
CREATION_DATE  = 
ORIGINATOR     = 

OBJECT_NAME    = COSMOS 2058
OBJECT_ID      = 1990-010A
CENTER_NAME    = EARTH
REF_FRAME      = TEME
TIME_SYSTEM    = UTC
MEAN_ELEMENT_THEORY = SGP/SGP4

EPOCH          = 2025-11-22T00:30:06.583392
MEAN_MOTION    = 15.10218501
ECCENTRICITY   = .0009977
INCLINATION    = 82.4628
RA_OF_ASC_NODE = 153.4141
ARG_OF_PERICENTER = 354.9719
MEAN_ANOMALY   = 5.1409

EPHEMERIS_TYPE = 0
CLASSIFICATION_TYPE = U
NORAD_CAT_ID   = 20465
ELEMENT_SET_NO = 999
REV_AT_EPOCH   = 92598
BSTAR          = .22539E-3
MEAN_MOTION_DOT = .3715E-4
MEAN_MOTION_DDOT = 0

CCSDS_OMM_VERS = 2.0
CREATION_DATE  = 
ORIGINATOR     = 

OBJECT_NAME    = SL-14 R/B
OBJECT_ID      = 1990-010B
CENTER_NAME    = EARTH
REF_FRAME      = TEME
TIME_SYSTEM    = UTC
MEAN_ELEMENT_THEORY = SGP/SGP4

EPOCH          = 2025-11-21T13:34:26.760000
MEAN_MOTION    = 14.83443564
ECCENTRICITY   = .0018433
INCLINATION    = 82.5037
RA_OF_ASC_NODE = 8.9331
ARG_OF_PERICENTER = 298.3182
MEAN_ANOMALY   = 61.6173

EPHEMERIS_TYPE = 0
CLASSIFICATION_TYPE = U
NORAD_CAT_ID   = 20466
ELEMENT_SET_NO = 999
REV_AT_EPOCH   = 91245
BSTAR          = .55163E-4
MEAN_MOTION_DOT = .478E-5
MEAN_MOTION_DDOT = 0

CCSDS_OMM_VERS = 2.0
CREATION_DATE  = 
ORIGINATOR     = 

OBJECT_NAME    = SL-14 R/B
OBJECT_ID      = 1990-018B
CENTER_NAME    = EARTH
REF_FRAME      = TEME
TIME_SYSTEM    = UTC
MEAN_ELEMENT_THEORY = SGP/SGP4

EPOCH          = 2025-11-22T02:05:28.032864
MEAN_MOTION    = 14.82016447
ECCENTRICITY   = .0017986
INCLINATION    = 82.5198
RA_OF_ASC_NODE = 323.6705
ARG_OF_PERICENTER = 86.6624
MEAN_ANOMALY   = 273.6647

EPHEMERIS_TYPE = 0
CLASSIFICATION_TYPE = U
NORAD_CAT_ID   = 20511
ELEMENT_SET_NO = 999
REV_AT_EPOCH   = 90664
BSTAR          = .56695E-4
MEAN_MOTION_DOT = .475E-5
MEAN_MOTION_DDOT = 0

CCSDS_OMM_VERS = 2.0
CREATION_DATE  = 
ORIGINATOR     = 

OBJECT_NAME    = HST
OBJECT_ID      = 1990-037B
CENTER_NAME    = EARTH
REF_FRAME      = TEME
TIME_SYSTEM    = UTC
MEAN_ELEMENT_THEORY = SGP/SGP4

EPOCH          = 2025-11-21T08:48:19.485216
MEAN_MOTION    = 15.27634302
ECCENTRICITY   = .0001715
INCLINATION    = 28.4694
RA_OF_ASC_NODE = 57.9121
ARG_OF_PERICENTER = 15.6328
MEAN_ANOMALY   = 344.4320

EPHEMERIS_TYPE = 0
CLASSIFICATION_TYPE = U
NORAD_CAT_ID   = 20580
ELEMENT_SET_NO = 999
REV_AT_EPOCH   = 75672
BSTAR          = .29185E-3
MEAN_MOTION_DOT = .8339E-4
MEAN_MOTION_DDOT = 0

CCSDS_OMM_VERS = 2.0
CREATION_DATE  = 
ORIGINATOR     = 

OBJECT_NAME    = SL-16 R/B
OBJECT_ID      = 1990-046B
CENTER_NAME    = EARTH
REF_FRAME      = TEME
TIME_SYSTEM    = UTC
MEAN_ELEMENT_THEORY = SGP/SGP4

EPOCH          = 2025-11-21T23:05:40.848576
MEAN_MOTION    = 14.14990297
ECCENTRICITY   = .0012263
INCLINATION    = 70.9959
RA_OF_ASC_NODE = 164.1560
ARG_OF_PERICENTER = 111.8473
MEAN_ANOMALY   = 248.3955

EPHEMERIS_TYPE = 0
CLASSIFICATION_TYPE = U
NORAD_CAT_ID   = 20625
ELEMENT_SET_NO = 999
REV_AT_EPOCH   = 83315
BSTAR          = .69858E-4
MEAN_MOTION_DOT = .88E-6
MEAN_MOTION_DDOT = 0

CCSDS_OMM_VERS = 2.0
CREATION_DATE  = 
ORIGINATOR     = 

OBJECT_NAME    = COSMOS 2084
OBJECT_ID      = 1990-055A
CENTER_NAME    = EARTH
REF_FRAME      = TEME
TIME_SYSTEM    = UTC
MEAN_ELEMENT_THEORY = SGP/SGP4

EPOCH          = 2025-11-22T02:27:31.344768
MEAN_MOTION    = 15.04837572
ECCENTRICITY   = .0034961
INCLINATION    = 62.7909
RA_OF_ASC_NODE = 342.3024
ARG_OF_PERICENTER = 172.2160
MEAN_ANOMALY   = 187.9490

EPHEMERIS_TYPE = 0
CLASSIFICATION_TYPE = U
NORAD_CAT_ID   = 20663
ELEMENT_SET_NO = 999
REV_AT_EPOCH   = 92012
BSTAR          = .19216E-3
MEAN_MOTION_DOT = .2558E-4
MEAN_MOTION_DDOT = 0

CCSDS_OMM_VERS = 2.0
CREATION_DATE  = 
ORIGINATOR     = 

OBJECT_NAME    = SL-6 R/B(2)
OBJECT_ID      = 1990-055D
CENTER_NAME    = EARTH
REF_FRAME      = TEME
TIME_SYSTEM    = UTC
MEAN_ELEMENT_THEORY = SGP/SGP4

EPOCH          = 2025-11-22T01:49:32.797056
MEAN_MOTION    = 15.02936419
ECCENTRICITY   = .001113
INCLINATION    = 62.7835
RA_OF_ASC_NODE = 259.6181
ARG_OF_PERICENTER = 291.8468
MEAN_ANOMALY   = 68.1447

EPHEMERIS_TYPE = 0
CLASSIFICATION_TYPE = U
NORAD_CAT_ID   = 20666
ELEMENT_SET_NO = 999
REV_AT_EPOCH   = 92201
BSTAR          = .21035E-3
MEAN_MOTION_DOT = .2646E-4
MEAN_MOTION_DDOT = 0

CCSDS_OMM_VERS = 2.0
CREATION_DATE  = 
ORIGINATOR     = 

OBJECT_NAME    = SL-8 R/B
OBJECT_ID      = 1990-078B
CENTER_NAME    = EARTH
REF_FRAME      = TEME
TIME_SYSTEM    = UTC
MEAN_ELEMENT_THEORY = SGP/SGP4

EPOCH          = 2025-11-22T02:48:40.894272
MEAN_MOTION    = 14.84713579
ECCENTRICITY   = .0378509
INCLINATION    = 82.9048
RA_OF_ASC_NODE = 347.7513
ARG_OF_PERICENTER = 15.0623
MEAN_ANOMALY   = 346.1497

EPHEMERIS_TYPE = 0
CLASSIFICATION_TYPE = U
NORAD_CAT_ID   = 20775
ELEMENT_SET_NO = 999
REV_AT_EPOCH   = 79331
BSTAR          = .66219E-3
MEAN_MOTION_DOT = .21413E-3
MEAN_MOTION_DDOT = 0

CCSDS_OMM_VERS = 2.0
CREATION_DATE  = 
ORIGINATOR     = 

OBJECT_NAME    = SL-8 R/B
OBJECT_ID      = 1991-006B
CENTER_NAME    = EARTH
REF_FRAME      = TEME
TIME_SYSTEM    = UTC
MEAN_ELEMENT_THEORY = SGP/SGP4

EPOCH          = 2025-11-21T21:43:51.128832
MEAN_MOTION    = 13.77486301
ECCENTRICITY   = .0022149
INCLINATION    = 82.9424
RA_OF_ASC_NODE = 250.2088
ARG_OF_PERICENTER = 340.8102
MEAN_ANOMALY   = 87.4637

EPHEMERIS_TYPE = 0
CLASSIFICATION_TYPE = U
NORAD_CAT_ID   = 21088
ELEMENT_SET_NO = 999
REV_AT_EPOCH   = 74923
BSTAR          = .87512E-4
MEAN_MOTION_DOT = .102E-5
MEAN_MOTION_DDOT = 0

CCSDS_OMM_VERS = 2.0
CREATION_DATE  = 
ORIGINATOR     = 

OBJECT_NAME    = OKEAN-3
OBJECT_ID      = 1991-039A
CENTER_NAME    = EARTH
REF_FRAME      = TEME
TIME_SYSTEM    = UTC
MEAN_ELEMENT_THEORY = SGP/SGP4

EPOCH          = 2025-11-21T18:59:52.080000
MEAN_MOTION    = 15.03913198
ECCENTRICITY   = .0014127
INCLINATION    = 82.5167
RA_OF_ASC_NODE = 81.3177
ARG_OF_PERICENTER = 343.6007
MEAN_ANOMALY   = 16.4760

EPHEMERIS_TYPE = 0
CLASSIFICATION_TYPE = U
NORAD_CAT_ID   = 21397
ELEMENT_SET_NO = 999
REV_AT_EPOCH   = 84881
BSTAR          = .29424E-3
MEAN_MOTION_DOT = .409E-4
MEAN_MOTION_DDOT = 0

